NUSAT-50 (NANCY ROMAN)  
1 60493U 24149AB  26068.80227738  .00012094  00000+0  42252-3 0  9994
2 60493  97.3817 150.7693 0002523 238.0469 122.0527 15.29713355 86930
STARLINK-32849          
1 62872U 25022U   26068.54508361  .00019327  00000+0  66321-3 0  9992
2 62872  53.1580 130.6007 0001300  92.1741 267.9408 15.30188738 61876
